"45 Eugenia:Eugenia:1941 BN" "Sol"
{
	Class	"asteroid"
	Mesh	"eugenia.cmod"
	MeshCenter	[ 0.1592 2.377 -0.3412 ]
	Texture	"asteroid.*"
	Color	[ 0.258 0.256 0.25 ]  # a000045.2.txt
	BlendTexture	true
	Radius	126  # maximum semi-axis
	Mass<kg>	5.6321e18
	Density	1660
	EllipticalOrbit
	{
		Epoch	2460200.5  # 2023 Sept 13
		Period	4.486962887167529
		SemiMajorAxis	2.72037964582147
		Eccentricity	0.08319376065918045
		Inclination	6.605134973013918
		AscendingNode	147.5872525087751
		ArgOfPericenter	87.48925400055647
		MeanAnomaly	30.53633191069684
	}
	BodyFrame	{ EquatorJ2000 {} }
	UniformRotation
	{
		Period	5.699151
		Inclination	110.90
		AscendingNode	211.11
		MeridianAngle	7.2  # from DAMIT model 1812
	}
	LunarLambert	0.9
	# GeomAlbedo	0.065
	Reflectivity	0.025  # for G = 0.130
	InfoURL	"https://en.wikipedia.org/wiki/45_Eugenia"
}

"S 2004 (45) 1:Princesse" "Sol/Eugenia"
{
	Class	"minormoon"
	Mesh	"asteroid.cms"
	Texture	"asteroid.*"
	Color	[ 0.258 0.256 0.25 ]
	BlendTexture	true
	Radius	3
	OrbitFrame	{ EquatorJ2000 {} }
	EllipticalOrbit
	{
		Epoch	2452980.0  # 2003 Dec 06 12:00
		Period	1.78960  # from SMA and mass
		SemiMajorAxis	610.59
		Eccentricity	0.11
		Inclination	129.63
		AscendingNode	206.67
		ArgOfPericenter	95
		MeanAnomaly	-187
	}
	BodyFrame	{ EquatorJ2000 {} }
	UniformRotation  # to match orbit
	{
		Epoch	2452980.0  # 2003 Dec 06 12:00
		Inclination	129.63
		AscendingNode	206.67
		MeridianAngle	88
	}
	LunarLambert	0.9
	# GeomAlbedo	0.065
	Reflectivity	0.025
	InfoURL	"https://en.wikipedia.org/wiki/45_Eugenia#S/2004_(45)_1"
}

"Petit-Prince:45 Eugenia I:Eugenia I:S 1998 (45) 1" "Sol/Eugenia"
{
	Class	"minormoon"
	Mesh	"asteroid.cms"
	Texture	"asteroid.*"
	Color	[ 0.258 0.256 0.25 ]
	BlendTexture	true
	Radius	3.5
	OrbitFrame	{ EquatorJ2000 {} }
	EllipticalOrbit
	{
		Epoch	2452980.0  # 2003 Dec 06 12:00
		Period	4.71295  # from SMA and mass
		SemiMajorAxis	1164.42
		Eccentricity	0.002
		Inclination	106.71
		AscendingNode	201.93
		ArgOfPericenter	138
		MeanAnomaly	5
	}
	BodyFrame	{ EquatorJ2000 {} }
	UniformRotation  # to match orbit
	{
		Epoch	2452980.0  # 2003 Dec 06 12:00
		Inclination	106.71
		AscendingNode	201.93
		MeridianAngle	323
	}
	LunarLambert	0.9
	# GeomAlbedo	0.065
	Reflectivity	0.025
	InfoURL	"https://en.wikipedia.org/wiki/45_Eugenia#Petit-Prince"
}

# Carry et al. (2021), A&A 650, A129
#   "Evidence for differentiation of the most primitive small bodies"
#   https://ui.adsabs.harvard.edu/abs/2021A%26A...650A.129C/abstract
"87 Sylvia:Sylvia:A909 GA" "Sol"
{
	Class	"asteroid"
	Mesh	"sylvia.cmod"
	MeshCenter	[ -0.1710 -2.655 -0.1451 ]
	Texture	"asteroid.*"
	Color	[ 0.201 0.197 0.191 ]  # a000087.2.txt
	BlendTexture	true
	Radius	181.5  # maximum semi-axis; MPCD model
	Mass<kg>	1.440e19
	Density	1378
	EllipticalOrbit
	{
		Epoch	2460200.5  # 2023 Sept 13
		Period	6.483690492144261
		SemiMajorAxis	3.477037558039971
		Eccentricity	0.09389234196453734
		Inclination	10.88029344765754
		AscendingNode	73.01217364218917
		ArgOfPericenter	264.4030328527093
		MeanAnomaly	334.8192615156582
	}
	BodyFrame	{ EquatorJ2000 {} }
	UniformRotation
	{
		Period	5.183641
		Inclination	6.5
		AscendingNode	104.3
		MeridianAngle	169.7  # from DAMIT model 719
	}
	LunarLambert	0.9
	# GeomAlbedo	0.04  # Vernazza et al. (2021)
	Reflectivity	0.016  # for G_1 = 0.251955 and G_2 = 0.344251
	InfoURL	"https://en.wikipedia.org/wiki/87_Sylvia"
}

"Remus:87 Sylvia II:Sylvia II:S 2004 (87) 1" "Sol/Sylvia"
{
	Class	"minormoon"
	Mesh	"asteroid.cms"
	Texture	"asteroid.*"
	Color	[ 0.201 0.197 0.191 ]
	BlendTexture	true
	Radius	5.15
	Mass<kg>	7.8e14
	# Density	1480
	OrbitFrame	{ EquatorJ2000 {} }
	EllipticalOrbit
	{
		Period	1.35699
		SemiMajorAxis	694.2
		Eccentricity	0.005
		Inclination	8.7
		AscendingNode	100.8
		ArgOfPericenter	262.2
		Epoch	2455594.89253
	}
	BodyFrame	{ EquatorJ2000 {} }
	UniformRotation  # to match orbit
	{
		Epoch	2455594.89253
		Inclination	8.7
		AscendingNode	100.8
		MeridianAngle	82.2
	}
	LunarLambert	0.9
	# GeomAlbedo	0.04
	Reflectivity	0.016
	InfoURL	"https://en.wikipedia.org/wiki/Remus_(moon)"
}

# Size and shape from Berthier et al. (2014), Icarus 239, p. 118-130
#   "Physical and dynamical properties of the main belt triple Asteroid (87) Sylvia"
#   https://ui.adsabs.harvard.edu/abs/2014Icar..239..118B/abstract
"Romulus:87 Sylvia I:Sylvia I:S 2001 (87) 1" "Sol/Sylvia"
{
	Class	"minormoon"
	Mesh	"roughsphere.cms"
	Texture	"asteroid.*"
	Color	[ 0.201 0.197 0.191 ]
	BlendTexture	true
	# Radius	7.55
	SemiAxes	[ 19 7 7 ]
	Mass<kg>	1.4e15
	# Density	790
	OrbitFrame	{ EquatorJ2000 {} }
	EllipticalOrbit
	{
		Period	3.64126
		SemiMajorAxis	1340.6
		Eccentricity	0.000
		Inclination	7.4
		AscendingNode	97.1
		ArgOfPericenter	171.0
		Epoch	2455597.08689
	}
	BodyFrame	{ EquatorJ2000 {} }
	UniformRotation  # to match orbit
	{
		Epoch	2455597.08689
		Inclination	7.4
		AscendingNode	97.1
		MeridianAngle	351.0
	}
	LunarLambert	0.9
	# GeomAlbedo	0.04
	Reflectivity	0.016
	InfoURL	"https://en.wikipedia.org/wiki/Romulus_(moon)"
}

# Fuksa et al. (2023), A&A 677, A189
#   "An advanced multipole model of the (130) Elektra quadruple system"
#   https://ui.adsabs.harvard.edu/abs/2023A%26A...677A.189F/abstract
"130 Elektra:Elektra" "Sol"
{
	Class	"asteroid"
	Mesh	"elektra.cmod"
	MeshCenter	[ -0.1315 -0.0109 2.624 ]
	Texture	"asteroid.*"
	Color	[ 0.255 0.253 0.238 ]  # a000130.2.txt
	BlendTexture	true
	Radius	135  # maximum semi-axis; mean of two models
	Mass<kg>	6.606e18
	Density	1536
	EllipticalOrbit
	{
		Epoch	2460200.5  # 2023 Sept 13
		Period	5.527107049307030
		SemiMajorAxis	3.126029815266054
		Eccentricity	0.209667410193861
		Inclination	22.77754756941516
		AscendingNode	144.9889230573203
		ArgOfPericenter	237.7477091724604
		MeanAnomaly	230.8768973136703
	}
	BodyFrame	{ EquatorJ2000 {} }
	UniformRotation  # pole orientation from orbital model
	{
		Period	5.224663
		Inclination	156.8
		AscendingNode	184.5
		MeridianAngle	177.2  # from DAMIT model 1856
	}
	LunarLambert	0.9
	# GeomAlbedo	0.067  # Vernazza et al. (2021)
	Reflectivity	0.024  # for G_1 = 0.60 and G_2 = 0.130
	InfoURL	"https://en.wikipedia.org/wiki/130_Elektra"
}

"S 2014 (130) 1" "Sol/Elektra"
{
	Class	"minormoon"
	Mesh	"asteroid.cms"
	Texture	"asteroid.*"
	Color	[ 0.255 0.253 0.238 ]
	BlendTexture	true
	Radius	1.0
	Mass<kg>	6.8e12
	OrbitFrame	{ EclipticJ2000 {} }
	EllipticalOrbit
	{
		Epoch	2457021.567880  # 2014 Dec 30 01:37:45 TDB
		Period	1.2127
		SemiMajorAxis	496.8
		Eccentricity	0.028
		Inclination	179.7
		AscendingNode	185.3
		LongOfPericenter	54.3
		MeanLongitude	74.1
	}
	BodyFrame	{ EclipticJ2000 {} }
	UniformRotation  # to match orbit
	{
		Epoch	2457021.567880  # 2014 Dec 30 01:37:45 TDB
		Inclination	179.7
		AscendingNode	185.3
		MeridianAngle	68.8
	}
	LunarLambert	0.9
	# GeomAlbedo	0.067
	Reflectivity	0.024
	InfoURL	"https://en.wikipedia.org/wiki/130_Elektra#S/2014_(130)_1"
}

